[
    {
        "OBJECT_NAME": "GSAT0210 (GALILEO 13)",
        "OBJECT_ID": "2016-030B",
        "EPOCH": "2025-03-10T15:39:19.657440",
        "MEAN_MOTION": 1.70473872,
        "ECCENTRICITY": 0.0001298,
        "INCLINATION": 55.2543,
        "RA_OF_ASC_NODE": 234.439,
        "ARG_OF_PERICENTER": 177.14,
        "MEAN_ANOMALY": 182.8151,
        "EPHEMERIS_TYPE": 0,
        "CLASSIFICATION_TYPE": "U",
        "NORAD_CAT_ID": 41550,
        "ELEMENT_SET_NO": 999,
        "REV_AT_EPOCH": 5476,
        "BSTAR": 0,
        "MEAN_MOTION_DOT": 1.2e-07,
        "MEAN_MOTION_DDOT": 0
    },
    {
        "OBJECT_NAME": "GSAT0207 (GALILEO 15)",
        "OBJECT_ID": "2016-069A",
        "EPOCH": "2025-03-09T18:11:19.746816",
        "MEAN_MOTION": 1.70474552,
        "ECCENTRICITY": 0.000521,
        "INCLINATION": 55.2201,
        "RA_OF_ASC_NODE": 113.9505,
        "ARG_OF_PERICENTER": 299.5451,
        "MEAN_ANOMALY": 60.4785,
        "EPHEMERIS_TYPE": 0,
        "CLASSIFICATION_TYPE": "U",
        "NORAD_CAT_ID": 41859,
        "ELEMENT_SET_NO": 999,
        "REV_AT_EPOCH": 5148,
        "BSTAR": 0,
        "MEAN_MOTION_DOT": 7e-08,
        "MEAN_MOTION_DDOT": 0
    },
    {
        "OBJECT_NAME": "GSAT0212 (GALILEO 16)",
        "OBJECT_ID": "2016-069B",
        "EPOCH": "2025-03-10T04:45:44.692416",
        "MEAN_MOTION": 1.70474779,
        "ECCENTRICITY": 0.0003519,
        "INCLINATION": 55.2179,
        "RA_OF_ASC_NODE": 113.9342,
        "ARG_OF_PERICENTER": 322.2206,
        "MEAN_ANOMALY": 37.8325,
        "EPHEMERIS_TYPE": 0,
        "CLASSIFICATION_TYPE": "U",
        "NORAD_CAT_ID": 41860,
        "ELEMENT_SET_NO": 999,
        "REV_AT_EPOCH": 5174,
        "BSTAR": 0,
        "MEAN_MOTION_DOT": 1e-07,
        "MEAN_MOTION_DDOT": 0
    },
    {
        "OBJECT_NAME": "GSAT0213 (GALILEO 17)",
        "OBJECT_ID": "2016-069C",
        "EPOCH": "2025-03-08T19:21:48.951648",
        "MEAN_MOTION": 1.7047501,
        "ECCENTRICITY": 0.0005411,
        "INCLINATION": 55.2194,
        "RA_OF_ASC_NODE": 113.9801,
        "ARG_OF_PERICENTER": 283.6895,
        "MEAN_ANOMALY": 76.3215,
        "EPHEMERIS_TYPE": 0,
        "CLASSIFICATION_TYPE": "U",
        "NORAD_CAT_ID": 41861,
        "ELEMENT_SET_NO": 999,
        "REV_AT_EPOCH": 5158,
        "BSTAR": 0,
        "MEAN_MOTION_DOT": 1e-08,
        "MEAN_MOTION_DDOT": 0
    },
    {
        "OBJECT_NAME": "GSAT0214 (GALILEO 18)",
        "OBJECT_ID": "2016-069D",
        "EPOCH": "2025-03-08T22:51:21.731040",
        "MEAN_MOTION": 1.70474869,
        "ECCENTRICITY": 0.0004315,
        "INCLINATION": 55.2184,
        "RA_OF_ASC_NODE": 113.9691,
        "ARG_OF_PERICENTER": 284.9925,
        "MEAN_ANOMALY": 75.0315,
        "EPHEMERIS_TYPE": 0,
        "CLASSIFICATION_TYPE": "U",
        "NORAD_CAT_ID": 41862,
        "ELEMENT_SET_NO": 999,
        "REV_AT_EPOCH": 5171,
        "BSTAR": 0,
        "MEAN_MOTION_DOT": 2e-08,
        "MEAN_MOTION_DDOT": 0
    },
    {
        "OBJECT_NAME": "GSAT0215 (GALILEO 19)",
        "OBJECT_ID": "2017-079A",
        "EPOCH": "2025-03-08T20:32:26.244384",
        "MEAN_MOTION": 1.7047437,
        "ECCENTRICITY": 5.71e-05,
        "INCLINATION": 55.2338,
        "RA_OF_ASC_NODE": 234.3084,
        "ARG_OF_PERICENTER": 37.2177,
        "MEAN_ANOMALY": 322.7497,
        "EPHEMERIS_TYPE": 0,
        "CLASSIFICATION_TYPE": "U",
        "NORAD_CAT_ID": 43055,
        "ELEMENT_SET_NO": 999,
        "REV_AT_EPOCH": 4505,
        "BSTAR": 0,
        "MEAN_MOTION_DOT": 2.8e-07,
        "MEAN_MOTION_DDOT": 0
    },
    {
        "OBJECT_NAME": "GSAT0216 (GALILEO 20)",
        "OBJECT_ID": "2017-079B",
        "EPOCH": "2025-03-10T07:41:31.183584",
        "MEAN_MOTION": 1.70474567,
        "ECCENTRICITY": 0.0001501,
        "INCLINATION": 55.2335,
        "RA_OF_ASC_NODE": 234.2681,
        "ARG_OF_PERICENTER": 317.504,
        "MEAN_ANOMALY": 42.4403,
        "EPHEMERIS_TYPE": 0,
        "CLASSIFICATION_TYPE": "U",
        "NORAD_CAT_ID": 43056,
        "ELEMENT_SET_NO": 999,
        "REV_AT_EPOCH": 4509,
        "BSTAR": 0,
        "MEAN_MOTION_DOT": 1.4e-07,
        "MEAN_MOTION_DDOT": 0
    },
    {
        "OBJECT_NAME": "GSAT0217 (GALILEO 21)",
        "OBJECT_ID": "2017-079C",
        "EPOCH": "2025-03-03T12:03:02.249568",
        "MEAN_MOTION": 1.70474342,
        "ECCENTRICITY": 0.0001934,
        "INCLINATION": 55.2333,
        "RA_OF_ASC_NODE": 234.4543,
        "ARG_OF_PERICENTER": 358.5382,
        "MEAN_ANOMALY": 1.4211,
        "EPHEMERIS_TYPE": 0,
        "CLASSIFICATION_TYPE": "U",
        "NORAD_CAT_ID": 43057,
        "ELEMENT_SET_NO": 999,
        "REV_AT_EPOCH": 4496,
        "BSTAR": 0,
        "MEAN_MOTION_DOT": 4.8e-07,
        "MEAN_MOTION_DDOT": 0
    },
    {
        "OBJECT_NAME": "GSAT0218 (GALILEO 22)",
        "OBJECT_ID": "2017-079D",
        "EPOCH": "2025-03-09T14:06:40.924224",
        "MEAN_MOTION": 1.7047442,
        "ECCENTRICITY": 0.0001735,
        "INCLINATION": 55.2313,
        "RA_OF_ASC_NODE": 234.2839,
        "ARG_OF_PERICENTER": 303.6859,
        "MEAN_ANOMALY": 56.2576,
        "EPHEMERIS_TYPE": 0,
        "CLASSIFICATION_TYPE": "U",
        "NORAD_CAT_ID": 43058,
        "ELEMENT_SET_NO": 999,
        "REV_AT_EPOCH": 4506,
        "BSTAR": 0,
        "MEAN_MOTION_DOT": 2.1e-07,
        "MEAN_MOTION_DDOT": 0
    },
    {
        "OBJECT_NAME": "GSAT0221 (GALILEO 25)",
        "OBJECT_ID": "2018-060A",
        "EPOCH": "2025-03-03T00:53:32.821152",
        "MEAN_MOTION": 1.70475213,
        "ECCENTRICITY": 0.0005577,
        "INCLINATION": 57.2862,
        "RA_OF_ASC_NODE": 354.4951,
        "ARG_OF_PERICENTER": 303.4422,
        "MEAN_ANOMALY": 56.5121,
        "EPHEMERIS_TYPE": 0,
        "CLASSIFICATION_TYPE": "U",
        "NORAD_CAT_ID": 43564,
        "ELEMENT_SET_NO": 999,
        "REV_AT_EPOCH": 4114,
        "BSTAR": 0,
        "MEAN_MOTION_DOT": -9e-07,
        "MEAN_MOTION_DDOT": 0
    },
    {
        "OBJECT_NAME": "GSAT0222 (GALILEO 26)",
        "OBJECT_ID": "2018-060B",
        "EPOCH": "2025-03-06T04:32:11.976864",
        "MEAN_MOTION": 1.70474985,
        "ECCENTRICITY": 0.0003955,
        "INCLINATION": 57.2891,
        "RA_OF_ASC_NODE": 354.4126,
        "ARG_OF_PERICENTER": 284.9193,
        "MEAN_ANOMALY": 75.0424,
        "EPHEMERIS_TYPE": 0,
        "CLASSIFICATION_TYPE": "U",
        "NORAD_CAT_ID": 43565,
        "ELEMENT_SET_NO": 999,
        "REV_AT_EPOCH": 4123,
        "BSTAR": 0,
        "MEAN_MOTION_DOT": -1.03e-06,
        "MEAN_MOTION_DDOT": 0
    },
    {
        "OBJECT_NAME": "GSAT0219 (GALILEO 23)",
        "OBJECT_ID": "2018-060C",
        "EPOCH": "2025-03-01T03:08:58.595136",
        "MEAN_MOTION": 1.70475233,
        "ECCENTRICITY": 0.0005051,
        "INCLINATION": 57.2893,
        "RA_OF_ASC_NODE": 354.5507,
        "ARG_OF_PERICENTER": 310.5119,
        "MEAN_ANOMALY": 49.4489,
        "EPHEMERIS_TYPE": 0,
        "CLASSIFICATION_TYPE": "U",
        "NORAD_CAT_ID": 43566,
        "ELEMENT_SET_NO": 999,
        "REV_AT_EPOCH": 4112,
        "BSTAR": 0,
        "MEAN_MOTION_DOT": -8.4e-07,
        "MEAN_MOTION_DDOT": 0
    },
    {
        "OBJECT_NAME": "GSAT0220 (GALILEO 24)",
        "OBJECT_ID": "2018-060D",
        "EPOCH": "2025-03-03T02:40:56.826048",
        "MEAN_MOTION": 1.7047506,
        "ECCENTRICITY": 0.0005572,
        "INCLINATION": 57.2888,
        "RA_OF_ASC_NODE": 354.4975,
        "ARG_OF_PERICENTER": 300.6899,
        "MEAN_ANOMALY": 59.263,
        "EPHEMERIS_TYPE": 0,
        "CLASSIFICATION_TYPE": "U",
        "NORAD_CAT_ID": 43567,
        "ELEMENT_SET_NO": 999,
        "REV_AT_EPOCH": 4114,
        "BSTAR": 0,
        "MEAN_MOTION_DOT": -9e-07,
        "MEAN_MOTION_DDOT": 0
    }
]