GSAT0210 (GALILEO 13)   
1 41550U 16030B   25069.65231085  .00000012  00000+0  00000+0 0  9998
2 41550  55.2543 234.4390 0001298 177.1400 182.8151  1.70473872 54763
GSAT0207 (GALILEO 15)   
1 41859U 16069A   25068.75786744  .00000007  00000+0  00000+0 0  9993
2 41859  55.2201 113.9505 0005210 299.5451  60.4785  1.70474552 51484
GSAT0212 (GALILEO 16)   
1 41860U 16069B   25069.19843394  .00000010  00000+0  00000+0 0  9993
2 41860  55.2179 113.9342 0003519 322.2206  37.8325  1.70474779 51749
GSAT0213 (GALILEO 17)   
1 41861U 16069C   25067.80681657  .00000001  00000+0  00000+0 0  9992
2 41861  55.2194 113.9801 0005411 283.6895  76.3215  1.70475010 51581
GSAT0214 (GALILEO 18)   
1 41862U 16069D   25067.95233485  .00000002  00000+0  00000+0 0  9992
2 41862  55.2184 113.9691 0004315 284.9925  75.0315  1.70474869 51711
GSAT0215 (GALILEO 19)   
1 43055U 17079A   25067.85585931  .00000028  00000+0  00000+0 0  9993
2 43055  55.2338 234.3084 0000571  37.2177 322.7497  1.70474370 45050
GSAT0216 (GALILEO 20)   
1 43056U 17079B   25069.32049981  .00000014  00000+0  00000+0 0  9993
2 43056  55.2335 234.2681 0001501 317.5040  42.4403  1.70474567 45092
GSAT0217 (GALILEO 21)   
1 43057U 17079C   25062.50210937  .00000048  00000+0  00000+0 0  9995
2 43057  55.2333 234.4543 0001934 358.5382   1.4211  1.70474342 44962
GSAT0218 (GALILEO 22)   
1 43058U 17079D   25068.58797366  .00000021  00000+0  00000+0 0  9997
2 43058  55.2313 234.2839 0001735 303.6859  56.2576  1.70474420 45067
GSAT0221 (GALILEO 25)   
1 43564U 18060A   25062.03718543 -.00000090  00000+0  00000+0 0  9991
2 43564  57.2862 354.4951 0005577 303.4422  56.5121  1.70475213 41147
GSAT0222 (GALILEO 26)   
1 43565U 18060B   25065.18902751 -.00000103  00000+0  00000+0 0  9992
2 43565  57.2891 354.4126 0003955 284.9193  75.0424  1.70474985 41237
GSAT0219 (GALILEO 23)   
1 43566U 18060C   25060.13123374 -.00000084  00000+0  00000+0 0  9997
2 43566  57.2893 354.5507 0005051 310.5119  49.4489  1.70475233 41128
GSAT0220 (GALILEO 24)   
1 43567U 18060D   25062.11176882 -.00000090  00000+0  00000+0 0  9997
2 43567  57.2888 354.4975 0005572 300.6899  59.2630  1.70475060 41141
